STARLINK-30997          
1 58482U 23186K   26068.01059115  .00023746  00000+0  89142-3 0  9999
2 58482  42.9998  67.3412 0000499 244.0827 115.9973 15.26763988125796
KUIPER-00204            
1 67145U 25301N   26068.39760395  .00020516  00000+0  79568-3 0  9999
2 67145  51.8870  71.6415 0003071 354.8934   5.2016 15.26088400 13737
